GLOBALSTAR M063         
1 26081U 00008A   25075.97500135 -.00000070  00000+0  18097-3 0  9999
2 26081  51.9989 354.4266 0004904 132.5342 309.4524 11.86166848146633
GLOBALSTAR M062         
1 26082U 00008B   25075.91735654 -.00000080  00000+0  13274-3 0  9993
2 26082  51.9880   7.1189 0006556 277.5048 112.8792 12.43460498485145
GLOBALSTAR M065         
1 31571U 07020A   25075.90239501  .00000052  00000+0  87192-3 0  9990
2 31571  51.9883 147.1543 0010746 104.1274  67.8450 12.62000178821755
GLOBALSTAR M072         
1 31574U 07020D   25075.93688692 -.00000097  00000+0 -18142-3 0  9995
2 31574  52.0134 237.5482 0001961 136.9474  33.9140 11.91776769820463
GLOBALSTAR M071         
1 31576U 07020F   25075.85112128 -.00000106  00000+0 -14617-3 0  9998
2 31576  52.0046 129.5660 0000547 243.6602 288.0302 12.18250272483681
